{"type": "FeatureCollection", "features": [ {"type": "Feature", "properties": {"norad_id": 66856, "name": "STARLINK-36072", "group": "last-30-days", "lat": 41.46863682125404, "lon": 171.4297479140007, "alt_km": 321.00756287790773, "timestamp": "2025-12-16T08:59:41.908661+00:00", "meta": {"OBJECT_NAME": "STARLINK-36072", "OBJECT_ID": "2025-281J", "EPOCH": "2025-12-15T22:00:01.999584", "MEAN_MOTION": 15.82761882, "ECCENTRICITY": 0.00020753, "INCLINATION": 43.0005, "RA_OF_ASC_NODE": 102.7277, "ARG_OF_PERICENTER": 277.3383, "MEAN_ANOMALY": 66.5409, "EPHEMERIS_TYPE": 0, "CLASSIFICATION_TYPE": "U", "NORAD_CAT_ID": 66856, "ELEMENT_SET_NO": 999, "REV_AT_EPOCH": 191, "BSTAR": -0.0065893936, "MEAN_MOTION_DOT": -0.01269706, "MEAN_MOTION_DDOT": 0}, "tle": {"line1": "1 66856U 25281J   25349.91668981 -.01269706  00000+0 -65894-2 0  9996", "line2": "2 66856  43.0005 102.7277 0002075 277.3383  66.5409 15.82761882  1917"}}, "geometry": {"type": "Point", "coordinates": [171.4297479140007, 41.46863682125404]}}, {"type": "Feature", "properties": {"norad_id": 66857, "name": "STARLINK-36083", "group": "last-30-days", "lat": 41.94587909645954, "lon": 174.58518189209607, "alt_km": 320.8268518549112, "timestamp": "2025-12-16T08:59:41.908671+00:00", "meta": {"OBJECT_NAME": "STARLINK-36083", "OBJECT_ID": "2025-281K", "EPOCH": "2025-12-15T22:00:01.999584", "MEAN_MOTION": 15.82795536, "ECCENTRICITY": 0.00017184, "INCLINATION": 43.0003, "RA_OF_ASC_NODE": 102.7218, "ARG_OF_PERICENTER": 282.3113, "MEAN_ANOMALY": 63.9893, "EPHEMERIS_TYPE": 0, "CLASSIFICATION_TYPE": "U", "NORAD_CAT_ID": 66857, "ELEMENT_SET_NO": 999, "REV_AT_EPOCH": 191, "BSTAR": -0.007035721, "MEAN_MOTION_DOT": -0.01346558, "MEAN_MOTION_DDOT": 0}, "tle": {"line1": "1 66857U 25281K   25349.91668981 -.01346558  00000+0 -70357-2 0  9998", "line2": "2 66857  43.0003 102.7218 0001718 282.3113  63.9893 15.82795536  1912"}}, "geometry": {"type": "Point", "coordinates": [174.58518189209607, 41.94587909645954]}}, {"type": "Feature", "properties": {"norad_id": 66858, "name": "STARLINK-35118", "group": "last-30-days", "lat": 42.346922018989495, "lon": 177.88781248442936, "alt_km": 321.00491627595056, "timestamp": "2025-12-16T08:59:41.908681+00:00", "meta": {"OBJECT_NAME": "STARLINK-35118", "OBJECT_ID": "2025-281L", "EPOCH": "2025-12-15T22:00:01.999584", "MEAN_MOTION": 15.82758043, "ECCENTRICITY": 0.00017831, "INCLINATION": 43.0007, "RA_OF_ASC_NODE": 102.715, "ARG_OF_PERICENTER": 279.917, "MEAN_ANOMALY": 68.9401, "EPHEMERIS_TYPE": 0, "CLASSIFICATION_TYPE": "U", "NORAD_CAT_ID": 66858, "ELEMENT_SET_NO": 999, "REV_AT_EPOCH": 170, "BSTAR": -0.0071132392, "MEAN_MOTION_DOT": -0.01357423, "MEAN_MOTION_DDOT": 0}, "tle": {"line1": "1 66858U 25281L   25349.91668981 -.01357423  00000+0 -71132-2 0  9994", "line2": "2 66858  43.0007 102.7150 0001783 279.9170  68.9401 15.82758043  1708"}}, "geometry": {"type": "Point", "coordinates": [177.88781248442936, 42.346922018989495]}}, {"type": "Feature", "properties": {"norad_id": 66859, "name": "STARLINK-35646", "group": "last-30-days", "lat": 42.669348207267134, "lon": -178.52985870170954, "alt_km": 321.1748083716311, "timestamp": "2025-12-16T08:59:41.908690+00:00", "meta": {"OBJECT_NAME": "STARLINK-35646", "OBJECT_ID": "2025-281M", "EPOCH": "2025-12-15T22:00:01.999584", "MEAN_MOTION": 15.82695786, "ECCENTRICITY": 0.00018006, "INCLINATION": 43.0006, "RA_OF_ASC_NODE": 102.7082, "ARG_OF_PERICENTER": 281.5662, "MEAN_ANOMALY": 70.0624, "EPHEMERIS_TYPE": 0, "CLASSIFICATION_TYPE": "U", "NORAD_CAT_ID": 66859, "ELEMENT_SET_NO": 999, "REV_AT_EPOCH": 191, "BSTAR": -0.0071785568, "MEAN_MOTION_DOT": -0.01391212, "MEAN_MOTION_DDOT": 0}, "tle": {"line1": "1 66859U 25281M   25349.91668981 -.01391212  00000+0 -71786-2 0  9994", "line2": "2 66859  43.0006 102.7082 0001800 281.5662  70.0624 15.82695786  1915"}}, "geometry": {"type": "Point", "coordinates": [-178.52985870170954, 42.669348207267134]}}, {"type": "Feature", "properties": {"norad_id": 66860, "name": "STARLINK-35987", "group": "last-30-days", "lat": 42.553055649441355, "lon": -160.25767590084075, "alt_km": 322.3752889482539, "timestamp": "2025-12-16T08:59:41.908701+00:00", "meta": {"OBJECT_NAME": "STARLINK-35987", "OBJECT_ID": "2025-281N", "EPOCH": "2025-12-15T22:00:01.999584", "MEAN_MOTION": 15.8237491, "ECCENTRICITY": 0.0001794, "INCLINATION": 43.0005, "RA_OF_ASC_NODE": 102.6727, "ARG_OF_PERICENTER": 271.7216, "MEAN_ANOMALY": 93.9239, "EPHEMERIS_TYPE": 0, "CLASSIFICATION_TYPE": "U", "NORAD_CAT_ID": 66860, "ELEMENT_SET_NO": 999, "REV_AT_EPOCH": 191, "BSTAR": -0.0075966016, "MEAN_MOTION_DOT": -0.014433, "MEAN_MOTION_DDOT": 0}, "tle": {"line1": "1 66860U 25281N   25349.91668981 -.01443300  00000+0 -75966-2 0  9996", "line2": "2 66860  43.0005 102.6727 0001794 271.7216  93.9239 15.82374910  1918"}}, "geometry": {"type": "Point", "coordinates": [-160.25767590084075, 42.553055649441355]}}, {"type": "Feature", "properties": {"norad_id": 66861, "name": "STARLINK-35991", "group": "last-30-days", "lat": 42.97431554288158, "lon": -171.22791405128572, "alt_km": 321.5446687839258, "timestamp": "2025-12-16T08:59:41.908713+00:00", "meta": {"OBJECT_NAME": "STARLINK-35991", "OBJECT_ID": "2025-281P", "EPOCH": "2025-12-15T22:00:01.999584", "MEAN_MOTION": 15.825711, "ECCENTRICITY": 0.00016609, "INCLINATION": 43.0007, "RA_OF_ASC_NODE": 102.6941, "ARG_OF_PERICENTER": 274.7783, "MEAN_ANOMALY": 82.4465, "EPHEMERIS_TYPE": 0, "CLASSIFICATION_TYPE": "U", "NORAD_CAT_ID": 66861, "ELEMENT_SET_NO": 999, "REV_AT_EPOCH": 191, "BSTAR": -0.0073439928, "MEAN_MOTION_DOT": -0.01412151, "MEAN_MOTION_DDOT": 0}, "tle": {"line1": "1 66861U 25281P   25349.91668981 -.01412151  00000+0 -73440-2 0  9992", "line2": "2 66861  43.0007 102.6941 0001660 274.7783  82.4465 15.82571100  1917"}}, "geometry": {"type": "Point", "coordinates": [-171.22791405128572, 42.97431554288158]}}, {"type": "Feature", "properties": {"norad_id": 66862, "name": "STARLINK-35974", "group": "last-30-days", "lat": 42.88577128396036, "lon": -174.74840520708946, "alt_km": 321.45210074480383, "timestamp": "2025-12-16T08:59:41.908725+00:00", "meta": {"OBJECT_NAME": "STARLINK-35974", "OBJECT_ID": "2025-281Q", "EPOCH": "2025-12-15T22:00:01.999584", "MEAN_MOTION": 15.82622702, "ECCENTRICITY": 0.00018157, "INCLINATION": 43.0006, "RA_OF_ASC_NODE": 102.701, "ARG_OF_PERICENTER": 277.6173, "MEAN_ANOMALY": 76.9295, "EPHEMERIS_TYPE": 0, "CLASSIFICATION_TYPE": "U", "NORAD_CAT_ID": 66862, "ELEMENT_SET_NO": 999, "REV_AT_EPOCH": 181, "BSTAR": -0.0072641608, "MEAN_MOTION_DOT": -0.01401643, "MEAN_MOTION_DDOT": 0}, "tle": {"line1": "1 66862U 25281Q   25349.91668981 -.01401643  00000+0 -72642-2 0  9990", "line2": "2 66862  43.0006 102.7010 0001815 277.6173  76.9295 15.82622702  1815"}}, "geometry": {"type": "Point", "coordinates": [-174.74840520708946, 42.88577128396036]}}, {"type": "Feature", "properties": {"norad_id": 66863, "name": "STARLINK-36134", "group": "last-30-days", "lat": 42.93874248084535, "lon": -167.04257812291362, "alt_km": 321.8024317398249, "timestamp": "2025-12-16T08:59:41.908735+00:00", "meta": {"OBJECT_NAME": "STARLINK-36134", "OBJECT_ID": "2025-281R", "EPOCH": "2025-12-15T22:00:01.999584", "MEAN_MOTION": 15.82468616, "ECCENTRICITY": 0.00015498, "INCLINATION": 43.001, "RA_OF_ASC_NODE": 102.6861, "ARG_OF_PERICENTER": 279.4073, "MEAN_ANOMALY": 81.0645, "EPHEMERIS_TYPE": 0, "CLASSIFICATION_TYPE": "U", "NORAD_CAT_ID": 66863, "ELEMENT_SET_NO": 999, "REV_AT_EPOCH": 191, "BSTAR": -0.0074686794, "MEAN_MOTION_DOT": -0.0142717, "MEAN_MOTION_DDOT": 0}, "tle": {"line1": "1 66863U 25281R   25349.91668981 -.01427170  00000+0 -74687-2 0  9995", "line2": "2 66863  43.0010 102.6861 0001549 279.4073  81.0645 15.82468616  1916"}}, "geometry": {"type": "Point", "coordinates": [-167.04257812291362, 42.93874248084535]}}, {"type": "Feature", "properties": {"norad_id": 66864, "name": "STARLINK-36070", "group": "last-30-days", "lat": 42.80001422462323, "lon": -163.70669947943026, "alt_km": 322.1039870249879, "timestamp": "2025-12-16T08:59:41.908745+00:00", "meta": {"OBJECT_NAME": "STARLINK-36070", "OBJECT_ID": "2025-281S", "EPOCH": "2025-12-15T22:00:01.999584", "MEAN_MOTION": 15.8242699, "ECCENTRICITY": 0.00017442, "INCLINATION": 43.0008, "RA_OF_ASC_NODE": 102.6793, "ARG_OF_PERICENTER": 279.6746, "MEAN_ANOMALY": 83.3222, "EPHEMERIS_TYPE": 0, "CLASSIFICATION_TYPE": "U", "NORAD_CAT_ID": 66864, "ELEMENT_SET_NO": 999, "REV_AT_EPOCH": 194, "BSTAR": -0.0075192554, "MEAN_MOTION_DOT": -0.01433362, "MEAN_MOTION_DDOT": 0}, "tle": {"line1": "1 66864U 25281S   25349.91668981 -.01433362  00000+0 -75193-2 0  9999", "line2": "2 66864  43.0008 102.6793 0001744 279.6746  83.3222 15.82426990  1942"}}, "geometry": {"type": "Point", "coordinates": [-163.70669947943026, 42.80001422462323]}}, {"type": "Feature", "properties": {"norad_id": 66865, "name": "STARLINK-36117", "group": "last-30-days", "lat": 42.1911649576309, "lon": -156.73431873168062, "alt_km": 322.5312112619358, "timestamp": "2025-12-16T08:59:41.908755+00:00", "meta": {"OBJECT_NAME": "STARLINK-36117", "OBJECT_ID": "2025-281T", "EPOCH": "2025-12-15T22:00:01.999584", "MEAN_MOTION": 15.82312518, "ECCENTRICITY": 0.00016403, "INCLINATION": 43.0008, "RA_OF_ASC_NODE": 102.6661, "ARG_OF_PERICENTER": 277.6064, "MEAN_ANOMALY": 90.7782, "EPHEMERIS_TYPE": 0, "CLASSIFICATION_TYPE": "U", "NORAD_CAT_ID": 66865, "ELEMENT_SET_NO": 999, "REV_AT_EPOCH": 191, "BSTAR": -0.0076758669, "MEAN_MOTION_DOT": -0.01452711, "MEAN_MOTION_DDOT": 0}, "tle": {"line1": "1 66865U 25281T   25349.91668981 -.01452711  00000+0 -76759-2 0  9998", "line2": "2 66865  43.0008 102.6661 0001640 277.6064  90.7782 15.82312518  1913"}}, "geometry": {"type": "Point", "coordinates": [-156.73431873168062, 42.1911649576309]}}]}